1 27386U 02009A   18139.14471108 -.00000019  00000-0  74169-5 0  9998
2 27386  98.1869 174.5703 0001303  88.7428 306.1700 14.37922119849355
1 27386U 02009A   18139.57729591 -.00000022 +00000-0 +64484-5 0  9990
2 27386 098.1869 174.9826 0001301 088.8472 024.0474 14.37922127849413
1 27386U 02009A   18139.71611716 -.00000020  00000-0  69824-5 0  9996
2 27386  98.1868 175.1149 0001299  88.5940  22.4937 14.37922137849435
1 27386U 02009A   18140.11554807 -.00000020  00000-0  68546-5 0  9999
2 27386  98.1868 175.4957 0001296  88.6487 288.8985 14.37922160849492
1 27386U 02009A   18140.55275975 -.00000020  00000-0  71349-5 0  9998
2 27386  98.1867 175.9124 0001295  88.6959  30.7701 14.37922192849557
1 27386U 02009A   18140.63098258 -.00000019 +00000-0 +72536-5 0  9991
2 27386 098.1867 175.9869 0001298 088.6509 075.5017 14.37922198849493
1 27386U 02009A   18140.89560760 -.00000020  00000-0  71292-5 0  9991
2 27386  98.1866 176.2392 0001294  88.7399   4.4529 14.37922192849607
1 27386U 02009A   18140.95921861 -.00000019 +00000-0 +71531-5 0  9995
2 27386 098.1866 176.2998 0001292 088.8366 333.4483 14.37922201849540
1 27386U 02009A   18141.52822299 -.00000023  00000-0  58346-5 0  9998
2 27386  98.1865 176.8422 0001289  89.0922  36.9424 14.37922222849693
1 27386U 02009A   18141.59496775 -.00000024 +00000-0 +58041-5 0  9994
2 27386 098.1865 176.9058 0001289 089.0573 022.2820 14.37922229849630
1 27386U 02009A   18141.73397458 -.00000025  00000-0  52894-5 0  9999
2 27386  98.1865 177.0383 0001289  88.9273  21.5651 14.37922213849725
1 27386U 02009A   18142.14316611 -.00000023  00000-0  60401-5 0  9998
2 27386  98.1865 177.4283 0001282  88.8403 338.6085 14.37922252849787
1 27386U 02009A   18142.63816838 -.00000019 +00000-0 +74630-5 0  9992
2 27386 098.1864 177.9001 0001283 088.5676 019.7804 14.37922291849788
1 27386U 02009A   18142.70770679 -.00000016  00000-0  83343-5 0  9990
2 27386  98.1864 177.9664 0001282  88.6680  19.4377 14.37922305849865
1 27386U 02009A   18143.11647894 -.00000009  00000-0  10719-4 0  9996
2 27386  98.1864 178.3560 0001272  89.0373 333.8554 14.37922374849921
1 27386U 02009A   18143.55539366 -.00000004  00000-0  12263-4 0  9999
2 27386  98.1863 178.7744 0001276  89.1962  84.4263 14.37922431849983
1 27386U 02009A   18143.62288672 -.00000002 +00000-0 +12879-4 0  9999
2 27386 098.1863 178.8387 0001279 089.2090 073.5897 14.37922450849920
1 27386U 02009A   18143.95216859 -.00000001 +00000-0 +13373-4 0  9992
2 27386 098.1862 179.1525 0001274 089.3842 336.9577 14.37922467849972
1 27386U 02009A   18144.08153667 -.00000000  00000-0  13548-4 0  9997
2 27386  98.1862 179.2758 0001273  89.0543 286.5747 14.37922488850069
1 27386U 02009A   18144.52894625  .00000001  00000-0  14075-4 0  9998
2 27386  98.1862 179.7022 0001275  88.9714  81.3358 14.37922528850129
1 27386U 02009A   18144.58720354 -.00000001 +00000-0 +13238-4 0  9992
2 27386 098.1862 179.7578 0001271 089.2816 022.4203 14.37922518850065
1 27386U 02009A   18144.72623469 -.00000002 +00000-0 +12901-4 0  9994
2 27386 098.1862 179.8902 0001269 088.9585 022.0224 14.37922509850152
1 27386U 02009A   18145.56241153 -.00000000  00000-0  13475-4 0  9998
2 27386  98.1861 180.6872 0001268  88.9416  28.0090 14.37922569850275
1 27386U 02009A   18145.63037905 +.00000000 +00000-0 +13601-4 0  9994
2 27386 098.1861 180.7520 0001266 089.0766 019.5047 14.37922575850212
1 27386U 02009A   18145.69983097  .00000000  00000-0  13678-4 0  9996
2 27386  98.1860 180.8182 0001263  89.1729  18.7188 14.37922575850298
1 27386U 02009A   18145.96917108 +.00000002 +00000-0 +14138-4 0  9990
2 27386 098.1860 181.0749 0001259 089.5984 331.7273 14.37922594850263
1 27386U 02009A   18146.10820216 -.00000001  00000-0  13308-4 0  9998
2 27386  98.1860 181.2074 0001261  89.3047 331.2997 14.37922596850357
1 27386U 02009A   18146.53736734 -.00000002  00000-0  13032-4 0  9991
2 27386  98.1860 181.6165 0001262  89.8145  31.0806 14.37922625850411
1 27386U 02009A   18146.61628413 -.00000004 +00000-0 +12419-4 0  9994
2 27386 098.1860 181.6916 0001270 089.9678 079.2043 14.37922619850359
1 27386U 02009A   18146.81026076 -.00000003  00000-0  12689-4 0  9991
2 27386  98.1859 181.8765 0001264  89.7470   2.9653 14.37922623850458
1 27386U 02009A   18147.07328939 -.00000005  00000-0  12074-4 0  9993
2 27386  98.1859 182.1271 0001266  89.5182 283.9754 14.37922637850496
1 27386U 02009A   18147.57955650 -.00000008  00000-0  11018-4 0  9994
2 27386  98.1858 182.6096 0001265  89.5909  23.0813 14.37922651850564
1 27386U 02009A   18147.71803479 -.00000011  00000-0  99853-5 0  9999
2 27386  98.1858 182.7417 0001264  89.1305  19.9605 14.37922629850587
1 27386U 02009A   18148.11772108 -.00000013  00000-0  94132-5 0  9995
2 27386  98.1857 183.1226 0001261  89.2415 287.6310 14.37922647850643
1 27386U 02009A   18148.55461226 -.00000012  00000-0  96330-5 0  9990
2 27386  98.1857 183.5390 0001260  89.3628  27.7710 14.37922678850703
1 27386U 02009A   18148.62271828 -.00000011 +00000-0 +97868-5 0  9991
2 27386 098.1857 183.6039 0001263 089.4966 019.9846 14.37922686850648
1 27386U 02009A   18148.69212192 -.00000012  00000-0  95971-5 0  9991
2 27386  98.1857 183.6700 0001261  89.4929  19.0488 14.37922681850727
1 27386U 02009A   18148.96147118 -.00000011 +00000-0 +98572-5 0  9995
2 27386 098.1856 183.9267 0001258 089.8641 332.1591 14.37922695850693
1 27386U 02009A   18149.10001532 -.00000011  00000-0  10089-4 0  9997
2 27386  98.1856 184.0588 0001254  89.7109 329.0720 14.37922724850787
1 27386U 02009A   18149.60884102 -.00000008 +00000-0 +10902-4 0  9994
2 27386 098.1855 184.5437 0001256 090.2636 080.9353 14.37922792850788
1 27386U 02009A   18149.73668808 -.00000009 +00000-0 +10457-4 0  9997
2 27386 098.1855 184.6655 0001253 090.2155 022.4016 14.37922786850874
1 27386U 02009A   18150.14538069 -.00000007  00000-0  11263-4 0  9993
2 27386  98.1854 185.0550 0001244  90.1142 336.8791 14.37922845850932
1 27386U 02009A   18150.57188939 -.00000005  00000-0  11830-4 0  9995
2 27386  98.1854 185.4615 0001248  90.2199  23.3213 14.37922889850996
1 27386U 02009A   18150.64041039 -.00000007 +00000-0 +11366-4 0  9998
2 27386 098.1854 185.5268 0001246 090.2341 017.8013 14.37922883850932
1 27386U 02009A   18150.71017611 -.00000008 +00000-0 +10934-4 0  9996
2 27386 098.1854 185.5933 0001246 090.0880 018.8812 14.37922874851015
1 27386U 02009A   18151.11880976 -.00000009  00000-0  10762-4 0  9993
2 27386  98.1853 185.9827 0001243  90.2113 332.8289 14.37922906851077
1 27386U 02009A   18151.61518598 -.00000004 +00000-0 +12330-4 0  9994
2 27386 098.1853 186.4558 0001247 090.3845 020.6644 14.37922983851073
1 27386U 02009A   18151.68424894 -.00000003  00000-0  12554-4 0  9993
2 27386  98.1853 186.5216 0001247  90.5619  17.7851 14.37922990851150
1 27386U 02009A   18151.95350826 -.00000003 +00000-0 +12585-4 0  9990
2 27386 098.1852 186.7782 0001244 090.7510 330.6125 14.37923005851124
1 27386U 02009A   18152.09181281 -.00000003  00000-0  12559-4 0  9994
2 27386  98.1852 186.9100 0001247  90.5407 326.3431 14.37923024851219
1 27386U 02009A   18152.53149487 -.00000002  00000-0  12985-4 0  9997
2 27386  98.1852 187.3290 0001250  90.8037  80.7810 14.37923081851271
1 27386U 02009A   18152.59949877 -.00000001 +00000-0 +13295-4 0  9998
2 27386 098.1852 187.3938 0001250 090.7860 072.6177 14.37923098851211
1 27386U 02009A   18152.72827142 -.00000000  00000-0  13426-4 0  9998
2 27386  98.1852 187.5166 0001248  90.7788  18.8320 14.37923105851303
1 27386U 02009A   18153.20710817 -.00000001  00000-0  13263-4 0  9992
2 27386  98.1851 187.9729 0001252  90.7200 336.1588 14.37923140851373
1 27386U 02009A   18153.57554671 -.00000002  00000-0  12954-4 0  9993
2 27386  98.1851 188.3240 0001254  90.4119  82.5884 14.37923167851420
1 27386U 02009A   18153.63301285 -.00000003 +00000-0 +12750-4 0  9996
2 27386 098.1851 188.3788 0001254 090.5686 019.7335 14.37923168851364
1 27386U 02009A   18153.84085726 -.00000006  00000-0  11656-4 0  9995
2 27386  98.1851 188.5769 0001255  90.7040  14.8838 14.37923147851464
1 27386U 02009A   18153.97139910 -.00000005 +00000-0 +11904-4 0  9999
2 27386 098.1851 188.7013 0001256 090.8134 330.1343 14.37923167851416
